{
  "norad_id": 59486,
  "name": "STARLINK-31733",
  "history": [
    {
      "epoch": "2026-03-28T16:19:56.793216",
      "apogee_km": 483.39286643280775,
      "perigee_km": 482.7027684638688,
      "latitude_deg": 8.422758590448952,
      "longitude_deg": -166.0702297599055,
      "semi_major_axis_km": 6861.184817448338,
      "eccentricity": 5.029e-05,
      "inclination_deg": 42.9984,
      "raan_deg": 232.1802,
      "arg_perigee_deg": 261.3377,
      "mean_anomaly_deg": 98.7417,
      "mean_motion_rev_day": 15.27580427
    }
  ]
}